OBJECT B                
1 51825U 22019B   24326.87873758  .00025258  00000+0  88356-3 0  9999
2 51825  97.4119  36.8682 0013104  47.5915 312.6431 15.29430697151268
